{
  "type": "FeatureCollection",
  "features": [
    {
      "type": "Feature",
      "properties": {
        "norad_id": 67004,
        "name": "STARLINK-35913",
        "group": "last-30-days",
        "lat": 50.876077178029945,
        "lon": -49.27367566311458,
        "alt_km": 346.2286014720203,
        "timestamp": "2025-12-26T11:25:43.987804+00:00",
        "meta_object_name": "STARLINK-35913",
        "meta_object_id": "2025-293B",
        "meta_epoch": "2025-12-26T04:00:01.998720",
        "meta_mean_motion": 15.74365713,
        "meta_eccentricity": 0.000345,
        "meta_inclination": 69.9952,
        "meta_ra_of_asc_node": 284.9905,
        "meta_arg_of_pericenter": 270.9777,
        "meta_mean_anomaly": 191.6383,
        "meta_ephemeris_type": 0,
        "meta_classification_type": "U",
        "meta_norad_cat_id": 67004,
        "meta_element_set_no": 999,
        "meta_rev_at_epoch": 232,
        "meta_bstar": -0.012651,
        "meta_mean_motion_dot": -0.01632138,
        "meta_mean_motion_ddot": 0,
        "tle_line1": "1 67004U 25293B   25360.16668980 -.01632138  00000+0 -12651-1 0  9999",
        "tle_line2": "2 67004  69.9952 284.9905 0003450 270.9777 191.6383 15.74365713  2327"
      },
      "geometry": {
        "type": "Point",
        "coordinates": [
          -49.27367566311458,
          50.876077178029945
        ]
      }
    },
    {
      "type": "Feature",
      "properties": {
        "norad_id": 67005,
        "name": "STARLINK-36148",
        "group": "last-30-days",
        "lat": 52.71636489459313,
        "lon": -47.29745749905579,
        "alt_km": 346.1411495524935,
        "timestamp": "2025-12-26T11:25:43.987813+00:00",
        "meta_object_name": "STARLINK-36148",
        "meta_object_id": "2025-293C",
        "meta_epoch": "2025-12-26T04:00:01.998720",
        "meta_mean_motion": 15.74349789,
        "meta_eccentricity": 0.0003624,
        "meta_inclination": 69.9958,
        "meta_ra_of_asc_node": 284.9886,
        "meta_arg_of_pericenter": 272.0364,
        "meta_mean_anomaly": 192.8016,
        "meta_ephemeris_type": 0,
        "meta_classification_type": "U",
        "meta_norad_cat_id": 67005,
        "meta_element_set_no": 999,
        "meta_rev_at_epoch": 232,
        "meta_bstar": -0.012635,
        "meta_mean_motion_dot": -0.01629366,
        "meta_mean_motion_ddot": 0,
        "tle_line1": "1 67005U 25293C   25360.16668980 -.01629366  00000+0 -12635-1 0  9991",
        "tle_line2": "2 67005  69.9958 284.9886 0003624 272.0364 192.8016 15.74349789  2321"
      },
      "geometry": {
        "type": "Point",
        "coordinates": [
          -47.29745749905579,
          52.71636489459313
        ]
      }
    },
    {
      "type": "Feature",
      "properties": {
        "norad_id": 67006,
        "name": "STARLINK-36156",
        "group": "last-30-days",
        "lat": 56.64644592086249,
        "lon": -42.284918192000134,
        "alt_km": 345.87772142339054,
        "timestamp": "2025-12-26T11:25:43.987821+00:00",
        "meta_object_name": "STARLINK-36156",
        "meta_object_id": "2025-293D",
        "meta_epoch": "2025-12-26T04:00:01.998720",
        "meta_mean_motion": 15.74303527,
        "meta_eccentricity": 0.000369,
        "meta_inclination": 69.9954,
        "meta_ra_of_asc_node": 284.982,
        "meta_arg_of_pericenter": 273.6625,
        "meta_mean_anomaly": 196.1035,
        "meta_ephemeris_type": 0,
        "meta_classification_type": "U",
        "meta_norad_cat_id": 67006,
        "meta_element_set_no": 999,
        "meta_rev_at_epoch": 232,
        "meta_bstar": -0.012679,
        "meta_mean_motion_dot": -0.01631553,
        "meta_mean_motion_ddot": 0,
        "tle_line1": "1 67006U 25293D   25360.16668980 -.01631553  00000+0 -12679-1 0  9991",
        "tle_line2": "2 67006  69.9954 284.9820 0003690 273.6625 196.1035 15.74303527  2324"
      },
      "geometry": {
        "type": "Point",
        "coordinates": [
          -42.284918192000134,
          56.64644592086249
        ]
      }
    },
    {
      "type": "Feature",
      "properties": {
        "norad_id": 67007,
        "name": "STARLINK-36123",
        "group": "last-30-days",
        "lat": 54.82472134704697,
        "lon": -44.76252443913031,
        "alt_km": 345.9373960621251,
        "timestamp": "2025-12-26T11:25:43.987830+00:00",
        "meta_object_name": "STARLINK-36123",
        "meta_object_id": "2025-293E",
        "meta_epoch": "2025-12-26T04:00:01.998720",
        "meta_mean_motion": 15.74319288,
        "meta_eccentricity": 0.0003546,
        "meta_inclination": 69.9956,
        "meta_ra_of_asc_node": 284.9855,
        "meta_arg_of_pericenter": 273.2275,
        "meta_mean_anomaly": 194.229,
        "meta_ephemeris_type": 0,
        "meta_classification_type": "U",
        "meta_norad_cat_id": 67007,
        "meta_element_set_no": 999,
        "meta_rev_at_epoch": 232,
        "meta_bstar": -0.012663,
        "meta_mean_motion_dot": -0.0163063,
        "meta_mean_motion_ddot": 0,
        "tle_line1": "1 67007U 25293E   25360.16668980 -.01630630  00000+0 -12663-1 0  9990",
        "tle_line2": "2 67007  69.9956 284.9855 0003546 273.2275 194.2290 15.74319288  2325"
      },
      "geometry": {
        "type": "Point",
        "coordinates": [
          -44.76252443913031,
          54.82472134704697
        ]
      }
    },
    {
      "type": "Feature",
      "properties": {
        "norad_id": 67008,
        "name": "STARLINK-36163",
        "group": "last-30-days",
        "lat": 58.741953712017505,
        "lon": -39.0117326187543,
        "alt_km": 345.7033106693225,
        "timestamp": "2025-12-26T11:25:43.987842+00:00",
        "meta_object_name": "STARLINK-36163",
        "meta_object_id": "2025-293F",
        "meta_epoch": "2025-12-26T04:00:01.998720",
        "meta_mean_motion": 15.74262775,
        "meta_eccentricity": 0.0003518,
        "meta_inclination": 69.9955,
        "meta_ra_of_asc_node": 284.9789,
        "meta_arg_of_pericenter": 273.2313,
        "meta_mean_anomaly": 199.3092,
        "meta_ephemeris_type": 0,
        "meta_classification_type": "U",
        "meta_norad_cat_id": 67008,
        "meta_element_set_no": 999,
        "meta_rev_at_epoch": 232,
        "meta_bstar": -0.01272,
        "meta_mean_motion_dot": -0.01633499,
        "meta_mean_motion_ddot": 0,
        "tle_line1": "1 67008U 25293F   25360.16668980 -.01633499  00000+0 -12720-1 0  9991",
        "tle_line2": "2 67008  69.9955 284.9789 0003518 273.2313 199.3092 15.74262775  2327"
      },
      "geometry": {
        "type": "Point",
        "coordinates": [
          -39.0117326187543,
          58.741953712017505
        ]
      }
    },
    {
      "type": "Feature",
      "properties": {
        "norad_id": 67009,
        "name": "STARLINK-36118",
        "group": "last-30-days",
        "lat": 60.50752422772892,
        "lon": -35.79737057692374,
        "alt_km": 345.5475668726658,
        "timestamp": "2025-12-26T11:25:43.987851+00:00",
        "meta_object_name": "STARLINK-36118",
        "meta_object_id": "2025-293G",
        "meta_epoch": "2025-12-26T04:00:01.998720",
        "meta_mean_motion": 15.74240852,
        "meta_eccentricity": 0.0003449,
        "meta_inclination": 69.9957,
        "meta_ra_of_asc_node": 284.9767,
        "meta_arg_of_pericenter": 273.9048,
        "meta_mean_anomaly": 201.0571,
        "meta_ephemeris_type": 0,
        "meta_classification_type": "U",
        "meta_norad_cat_id": 67009,
        "meta_element_set_no": 999,
        "meta_rev_at_epoch": 226,
        "meta_bstar": -0.012729,
        "meta_mean_motion_dot": -0.01633091,
        "meta_mean_motion_ddot": 0,
        "tle_line1": "1 67009U 25293G   25360.16668980 -.01633091  00000+0 -12729-1 0  9999",
        "tle_line2": "2 67009  69.9957 284.9767 0003449 273.9048 201.0571 15.74240852  2269"
      },
      "geometry": {
        "type": "Point",
        "coordinates": [
          -35.79737057692374,
          60.50752422772892
        ]
      }
    },
    {
      "type": "Feature",
      "properties": {
        "norad_id": 67010,
        "name": "STARLINK-36189",
        "group": "last-30-days",
        "lat": 63.553577137048855,
        "lon": -28.812207946535,
        "alt_km": 345.3109826830914,
        "timestamp": "2025-12-26T11:25:43.987859+00:00",
        "meta_object_name": "STARLINK-36189",
        "meta_object_id": "2025-293H",
        "meta_epoch": "2025-12-26T04:00:01.998720",
        "meta_mean_motion": 15.74207428,
        "meta_eccentricity": 0.0003301,
        "meta_inclination": 69.9952,
        "meta_ra_of_asc_node": 284.9704,
        "meta_arg_of_pericenter": 271.7623,
        "meta_mean_anomaly": 207.7035,
        "meta_ephemeris_type": 0,
        "meta_classification_type": "U",
        "meta_norad_cat_id": 67010,
        "meta_element_set_no": 999,
        "meta_rev_at_epoch": 232,
        "meta_bstar": -0.012727,
        "meta_mean_motion_dot": -0.01630674,
        "meta_mean_motion_ddot": 0,
        "tle_line1": "1 67010U 25293H   25360.16668980 -.01630674  00000+0 -12727-1 0  9993",
        "tle_line2": "2 67010  69.9952 284.9704 0003301 271.7623 207.7035 15.74207428  2326"
      },
      "geometry": {
        "type": "Point",
        "coordinates": [
          -28.812207946535,
          63.553577137048855
        ]
      }
    }
  ]
}